{"type": "FeatureCollection", "features": [ {"type": "Feature", "properties": {"norad_id": 40802, "name": "COSMOS 2251 DEB", "group": "cosmos-2251-debris", "lat": 63.468957541344494, "lon": 166.1645771781793, "alt_km": 671.1732025101655, "timestamp": "2025-12-23T20:42:37.474443+00:00", "meta": {"OBJECT_NAME": "COSMOS 2251 DEB", "OBJECT_ID": "1993-036BWF", "EPOCH": "2025-12-20T16:01:50.950848", "MEAN_MOTION": 14.77686845, "ECCENTRICITY": 0.00629069, "INCLINATION": 74.0403, "RA_OF_ASC_NODE": 137.4571, "ARG_OF_PERICENTER": 234.6618, "MEAN_ANOMALY": 124.8667, "EPHEMERIS_TYPE": 0, "CLASSIFICATION_TYPE": "U", "NORAD_CAT_ID": 40802, "ELEMENT_SET_NO": 999, "REV_AT_EPOCH": 64526, "BSTAR": 0.0005156342, "MEAN_MOTION_DOT": 3.783e-05, "MEAN_MOTION_DDOT": 0}, "tle": {"line1": "1 40802U 93036BWF 25354.66795082  .00003783  00000+0  51563-3 0  9990", "line2": "2 40802  74.0403 137.4571 0062906 234.6618 124.8667 14.77686845645268"}}, "geometry": {"type": "Point", "coordinates": [166.1645771781793, 63.468957541344494]}}, {"type": "Feature", "properties": {"norad_id": 40803, "name": "COSMOS 2251 DEB", "group": "cosmos-2251-debris", "lat": -40.394116223381296, "lon": 16.805659363503203, "alt_km": 718.2223122287496, "timestamp": "2025-12-23T20:42:37.474453+00:00", "meta": {"OBJECT_NAME": "COSMOS 2251 DEB", "OBJECT_ID": "1993-036BWG", "EPOCH": "2025-12-21T09:22:13.076832", "MEAN_MOTION": 14.51837554, "ECCENTRICITY": 0.00343739, "INCLINATION": 74.0142, "RA_OF_ASC_NODE": 35.5847, "ARG_OF_PERICENTER": 250.91, "MEAN_ANOMALY": 108.8338, "EPHEMERIS_TYPE": 0, "CLASSIFICATION_TYPE": "U", "NORAD_CAT_ID": 40803, "ELEMENT_SET_NO": 999, "REV_AT_EPOCH": 58878, "BSTAR": 0.0002337407, "MEAN_MOTION_DOT": 9.19e-06, "MEAN_MOTION_DDOT": 0}, "tle": {"line1": "1 40803U 93036BWG 25355.39042913  .00000919  00000+0  23374-3 0  9997", "line2": "2 40803  74.0142  35.5847 0034373 250.9100 108.8338 14.51837554588784"}}, "geometry": {"type": "Point", "coordinates": [16.805659363503203, -40.394116223381296]}}, {"type": "Feature", "properties": {"norad_id": 40808, "name": "COSMOS 2251 DEB", "group": "cosmos-2251-debris", "lat": 36.25372944485761, "lon": -68.11409642061976, "alt_km": 660.0405758797542, "timestamp": "2025-12-23T20:42:37.474463+00:00", "meta": {"OBJECT_NAME": "COSMOS 2251 DEB", "OBJECT_ID": "1993-036BWM", "EPOCH": "2025-12-21T15:48:05.753088", "MEAN_MOTION": 14.67620191, "ECCENTRICITY": 0.00084034, "INCLINATION": 74.0423, "RA_OF_ASC_NODE": 128.2531, "ARG_OF_PERICENTER": 163.7615, "MEAN_ANOMALY": 215.4081, "EPHEMERIS_TYPE": 0, "CLASSIFICATION_TYPE": "U", "NORAD_CAT_ID": 40808, "ELEMENT_SET_NO": 999, "REV_AT_EPOCH": 63750, "BSTAR": 0.0013228625, "MEAN_MOTION_DOT": 7.499e-05, "MEAN_MOTION_DDOT": 0}, "tle": {"line1": "1 40808U 93036BWM 25355.65839992  .00007499  00000+0  13229-2 0  9999", "line2": "2 40808  74.0423 128.2531 0008403 163.7615 215.4081 14.67620191637507"}}, "geometry": {"type": "Point", "coordinates": [-68.11409642061976, 36.25372944485761]}}, {"type": "Feature", "properties": {"norad_id": 40810, "name": "COSMOS 2251 DEB", "group": "cosmos-2251-debris", "lat": 61.780969885502785, "lon": 85.79128254115095, "alt_km": 700.1908167328456, "timestamp": "2025-12-23T20:42:37.474474+00:00", "meta": {"OBJECT_NAME": "COSMOS 2251 DEB", "OBJECT_ID": "1993-036BWP", "EPOCH": "2025-12-23T03:56:49.945344", "MEAN_MOTION": 14.58782513, "ECCENTRICITY": 0.00180471, "INCLINATION": 74.0361, "RA_OF_ASC_NODE": 54.8832, "ARG_OF_PERICENTER": 205.863, "MEAN_ANOMALY": 154.1635, "EPHEMERIS_TYPE": 0, "CLASSIFICATION_TYPE": "U", "NORAD_CAT_ID": 40810, "ELEMENT_SET_NO": 999, "REV_AT_EPOCH": 61835, "BSTAR": 0.0007215593, "MEAN_MOTION_DOT": 3.351e-05, "MEAN_MOTION_DDOT": 0}, "tle": {"line1": "1 40810U 93036BWP 25357.16446696  .00003351  00000+0  72156-3 0  9993", "line2": "2 40810  74.0361  54.8832 0018047 205.8630 154.1635 14.58782513618352"}}, "geometry": {"type": "Point", "coordinates": [85.79128254115095, 61.780969885502785]}}, {"type": "Feature", "properties": {"norad_id": 46271, "name": "COSMOS 2251 DEB", "group": "cosmos-2251-debris", "lat": 12.672055582426282, "lon": 60.983142420357936, "alt_km": 748.8355886253676, "timestamp": "2025-12-23T20:42:37.474484+00:00", "meta": {"OBJECT_NAME": "COSMOS 2251 DEB", "OBJECT_ID": "1993-036BWT", "EPOCH": "2025-12-19T22:21:35.328960", "MEAN_MOTION": 14.51444335, "ECCENTRICITY": 0.003987, "INCLINATION": 74.0479, "RA_OF_ASC_NODE": 64.6869, "ARG_OF_PERICENTER": 184.8218, "MEAN_ANOMALY": 175.2565, "EPHEMERIS_TYPE": 0, "CLASSIFICATION_TYPE": "U", "NORAD_CAT_ID": 46271, "ELEMENT_SET_NO": 999, "REV_AT_EPOCH": 84746, "BSTAR": 0.00020357, "MEAN_MOTION_DOT": 7.93e-06, "MEAN_MOTION_DDOT": 0}, "tle": {"line1": "1 46271U 93036BWT 25353.93165890  .00000793  00000+0  20357-3 0  9998", "line2": "2 46271  74.0479  64.6869 0039870 184.8218 175.2565 14.51444335847465"}}, "geometry": {"type": "Point", "coordinates": [60.983142420357936, 12.672055582426282]}}, {"type": "Feature", "properties": {"norad_id": 46430, "name": "COSMOS 2251 DEB", "group": "cosmos-2251-debris", "lat": 68.75253457664239, "lon": 23.162088556312526, "alt_km": 786.8359406311538, "timestamp": "2025-12-23T20:42:37.474494+00:00", "meta": {"OBJECT_NAME": "COSMOS 2251 DEB", "OBJECT_ID": "1993-036BWU", "EPOCH": "2025-12-22T16:14:06.887040", "MEAN_MOTION": 14.51442901, "ECCENTRICITY": 0.01029275, "INCLINATION": 73.9145, "RA_OF_ASC_NODE": 337.5005, "ARG_OF_PERICENTER": 256.0795, "MEAN_ANOMALY": 102.8901, "EPHEMERIS_TYPE": 0, "CLASSIFICATION_TYPE": "U", "NORAD_CAT_ID": 46430, "ELEMENT_SET_NO": 999, "REV_AT_EPOCH": 79827, "BSTAR": 0.0019695835, "MEAN_MOTION_DOT": 8.403e-05, "MEAN_MOTION_DDOT": 0}, "tle": {"line1": "1 46430U 93036BWU 25356.67646860  .00008403  00000+0  19696-2 0  9999", "line2": "2 46430  73.9145 337.5005 0102927 256.0795 102.8901 14.51442901798271"}}, "geometry": {"type": "Point", "coordinates": [23.162088556312526, 68.75253457664239]}}, {"type": "Feature", "properties": {"norad_id": 46432, "name": "COSMOS 2251 DEB", "group": "cosmos-2251-debris", "lat": -57.70302997418513, "lon": 66.52755595976305, "alt_km": 1105.062738039046, "timestamp": "2025-12-23T20:42:37.474504+00:00", "meta": {"OBJECT_NAME": "COSMOS 2251 DEB", "OBJECT_ID": "1993-036BWW", "EPOCH": "2025-12-22T01:03:47.474208", "MEAN_MOTION": 13.36654939, "ECCENTRICITY": 0.04738658, "INCLINATION": 73.8725, "RA_OF_ASC_NODE": 96.6323, "ARG_OF_PERICENTER": 212.6525, "MEAN_ANOMALY": 332.3153, "EPHEMERIS_TYPE": 0, "CLASSIFICATION_TYPE": "U", "NORAD_CAT_ID": 46432, "ELEMENT_SET_NO": 999, "REV_AT_EPOCH": 67090, "BSTAR": 0.00093620994, "MEAN_MOTION_DOT": 9e-06, "MEAN_MOTION_DDOT": 0}, "tle": {"line1": "1 46432U 93036BWW 25356.04429947  .00000900  00000+0  93621-3 0  9992", "line2": "2 46432  73.8725  96.6323 0473865 212.6525 332.3153 13.36654939670909"}}, "geometry": {"type": "Point", "coordinates": [66.52755595976305, -57.70302997418513]}}, {"type": "Feature", "properties": {"norad_id": 47045, "name": "COSMOS 2251 DEB", "group": "cosmos-2251-debris", "lat": 66.49788841695003, "lon": -92.41720751191073, "alt_km": 775.6939751956388, "timestamp": "2025-12-23T20:42:37.474515+00:00", "meta": {"OBJECT_NAME": "COSMOS 2251 DEB", "OBJECT_ID": "1993-036BWZ", "EPOCH": "2025-12-22T15:55:55.342272", "MEAN_MOTION": 14.38905258, "ECCENTRICITY": 0.00303733, "INCLINATION": 74.058, "RA_OF_ASC_NODE": 130.8857, "ARG_OF_PERICENTER": 270.255, "MEAN_ANOMALY": 108.4261, "EPHEMERIS_TYPE": 0, "CLASSIFICATION_TYPE": "U", "NORAD_CAT_ID": 47045, "ELEMENT_SET_NO": 999, "REV_AT_EPOCH": 7948, "BSTAR": 8.0309913e-05, "MEAN_MOTION_DOT": 2.22e-06, "MEAN_MOTION_DDOT": 0}, "tle": {"line1": "1 47045U 93036BWZ 25356.66383498  .00000222  00000+0  80310-4 0  9990", "line2": "2 47045  74.0580 130.8857 0030373 270.2550 108.4261 14.38905258 79480"}}, "geometry": {"type": "Point", "coordinates": [-92.41720751191073, 66.49788841695003]}}, {"type": "Feature", "properties": {"norad_id": 47048, "name": "COSMOS 2251 DEB", "group": "cosmos-2251-debris", "lat": -31.892256589385084, "lon": 128.43835902315482, "alt_km": 722.4285016872163, "timestamp": "2025-12-23T20:42:37.474525+00:00", "meta": {"OBJECT_NAME": "COSMOS 2251 DEB", "OBJECT_ID": "1993-036BXC", "EPOCH": "2025-12-21T05:13:53.078880", "MEAN_MOTION": 14.5236804, "ECCENTRICITY": 0.013255, "INCLINATION": 73.9787, "RA_OF_ASC_NODE": 303.1415, "ARG_OF_PERICENTER": 128.8028, "MEAN_ANOMALY": 299.2168, "EPHEMERIS_TYPE": 0, "CLASSIFICATION_TYPE": "U", "NORAD_CAT_ID": 47048, "ELEMENT_SET_NO": 999, "REV_AT_EPOCH": 59813, "BSTAR": 0.00086716, "MEAN_MOTION_DOT": 3.933e-05, "MEAN_MOTION_DDOT": 0}, "tle": {"line1": "1 47048U 93036BXC 25355.21797545  .00003933  00000+0  86716-3 0  9992", "line2": "2 47048  73.9787 303.1415 0132550 128.8028 299.2168 14.52368040598134"}}, "geometry": {"type": "Point", "coordinates": [128.43835902315482, -31.892256589385084]}}, {"type": "Feature", "properties": {"norad_id": 47051, "name": "COSMOS 2251 DEB", "group": "cosmos-2251-debris", "lat": 9.598602026257504, "lon": 168.17813191149835, "alt_km": 1018.397980091886, "timestamp": "2025-12-23T20:42:37.474545+00:00", "meta": {"OBJECT_NAME": "COSMOS 2251 DEB", "OBJECT_ID": "1993-036BXF", "EPOCH": "2025-12-13T06:55:53.868288", "MEAN_MOTION": 13.67117141, "ECCENTRICITY": 0.03401033, "INCLINATION": 74.1001, "RA_OF_ASC_NODE": 182.6908, "ARG_OF_PERICENTER": 296.1774, "MEAN_ANOMALY": 246.9893, "EPHEMERIS_TYPE": 0, "CLASSIFICATION_TYPE": "U", "NORAD_CAT_ID": 47051, "ELEMENT_SET_NO": 999, "REV_AT_EPOCH": 59945, "BSTAR": 0.0019326179, "MEAN_MOTION_DOT": 2.391e-05, "MEAN_MOTION_DDOT": 0}, "tle": {"line1": "1 47051U 93036BXF 25347.28881792  .00002391  00000+0  19326-2 0  9991", "line2": "2 47051  74.1001 182.6908 0340103 296.1774 246.9893 13.67117141599458"}}, "geometry": {"type": "Point", "coordinates": [168.17813191149835, 9.598602026257504]}}]}